STARLINK-2711_new
1 18673C 21044AM  21326.16528500 -.00022500  00000-0 -15074-2 0  3264
2 18673  53.0548 312.9873 0002116  60.1294 236.5147 15.06422183    11
STARLINK-2711_old
1 28673C 21044AM  21325.13784888  .00000401  00000-0  26887-4 0  3252
2 28673  53.0543 317.5998 0002084  60.2328  61.4845 15.06401527    17
